CCSDS_OMM_VERS = 2.0
CREATION_DATE  = 
ORIGINATOR     = 

OBJECT_NAME    = STARLINK-36560
OBJECT_ID      = 2026-016AA
CENTER_NAME    = EARTH
REF_FRAME      = TEME
TIME_SYSTEM    = UTC
MEAN_ELEMENT_THEORY = SGP/SGP4

EPOCH          = 2026-02-03T14:00:01.999872
MEAN_MOTION    = 15.94828434
ECCENTRICITY   = .00014626
INCLINATION    = 97.2766
RA_OF_ASC_NODE = 93.2757
ARG_OF_PERICENTER = 93.2643
MEAN_ANOMALY   = 31.6980

EPHEMERIS_TYPE = 0
CLASSIFICATION_TYPE = U
NORAD_CAT_ID   = 67585
ELEMENT_SET_NO = 999
REV_AT_EPOCH   = 250
BSTAR          = -.44500863E-2
MEAN_MOTION_DOT = -.168479E-1
MEAN_MOTION_DDOT = .81461632E-3

CCSDS_OMM_VERS = 2.0
CREATION_DATE  = 
ORIGINATOR     = 

OBJECT_NAME    = CZ-2C DEB
OBJECT_ID      = 2026-009C
CENTER_NAME    = EARTH
REF_FRAME      = TEME
TIME_SYSTEM    = UTC
MEAN_ELEMENT_THEORY = SGP/SGP4

EPOCH          = 2026-02-04T03:47:29.211936
MEAN_MOTION    = 15.11527108
ECCENTRICITY   = .0112004
INCLINATION    = 97.2270
RA_OF_ASC_NODE = 108.8814
ARG_OF_PERICENTER = 153.0557
MEAN_ANOMALY   = 207.6551

EPHEMERIS_TYPE = 0
CLASSIFICATION_TYPE = U
NORAD_CAT_ID   = 67586
ELEMENT_SET_NO = 999
REV_AT_EPOCH   = 301
BSTAR          = .34136E-2
MEAN_MOTION_DOT = .67775E-3
MEAN_MOTION_DDOT = 0

CCSDS_OMM_VERS = 2.0
CREATION_DATE  = 
ORIGINATOR     = 

OBJECT_NAME    = CZ-2C DEB
OBJECT_ID      = 2026-009D
CENTER_NAME    = EARTH
REF_FRAME      = TEME
TIME_SYSTEM    = UTC
MEAN_ELEMENT_THEORY = SGP/SGP4

EPOCH          = 2026-02-04T03:12:46.728288
MEAN_MOTION    = 15.13115151
ECCENTRICITY   = .0108588
INCLINATION    = 97.6738
RA_OF_ASC_NODE = 109.9482
ARG_OF_PERICENTER = 158.3827
MEAN_ANOMALY   = 202.2040

EPHEMERIS_TYPE = 0
CLASSIFICATION_TYPE = U
NORAD_CAT_ID   = 67587
ELEMENT_SET_NO = 999
REV_AT_EPOCH   = 301
BSTAR          = .22887E-2
MEAN_MOTION_DOT = .47052E-3
MEAN_MOTION_DDOT = 0

CCSDS_OMM_VERS = 2.0
CREATION_DATE  = 
ORIGINATOR     = 

OBJECT_NAME    = NAVSTAR 85 (USA 581)
OBJECT_ID      = 2026-017A
CENTER_NAME    = EARTH
REF_FRAME      = TEME
TIME_SYSTEM    = UTC
MEAN_ELEMENT_THEORY = SGP/SGP4

EPOCH          = 2026-01-28T18:17:22.544736
MEAN_MOTION    = 4.03376750
ECCENTRICITY   = .59408377
INCLINATION    = 55.0007
RA_OF_ASC_NODE = 99.1396
ARG_OF_PERICENTER = 270.1415
MEAN_ANOMALY   = 26.1406

EPHEMERIS_TYPE = 0
CLASSIFICATION_TYPE = U
NORAD_CAT_ID   = 67588
ELEMENT_SET_NO = 999
REV_AT_EPOCH   = 4
BSTAR          = .32093292E-3
MEAN_MOTION_DOT = .346E-5
MEAN_MOTION_DDOT = 0

CCSDS_OMM_VERS = 2.0
CREATION_DATE  = 
ORIGINATOR     = 

OBJECT_NAME    = NEONSAT-1A
OBJECT_ID      = 2026-019A
CENTER_NAME    = EARTH
REF_FRAME      = TEME
TIME_SYSTEM    = UTC
MEAN_ELEMENT_THEORY = SGP/SGP4

EPOCH          = 2026-02-03T14:22:14.543616
MEAN_MOTION    = 15.07531449
ECCENTRICITY   = .00117565
INCLINATION    = 97.4100
RA_OF_ASC_NODE = 159.4076
ARG_OF_PERICENTER = 293.9576
MEAN_ANOMALY   = 66.0420

EPHEMERIS_TYPE = 0
CLASSIFICATION_TYPE = U
NORAD_CAT_ID   = 67614
ELEMENT_SET_NO = 999
REV_AT_EPOCH   = 68
BSTAR          = .32260882E-3
MEAN_MOTION_DOT = .4847E-4
MEAN_MOTION_DDOT = 0

CCSDS_OMM_VERS = 2.0
CREATION_DATE  = 
ORIGINATOR     = 

OBJECT_NAME    = ELECTRON R/B
OBJECT_ID      = 2026-019B
CENTER_NAME    = EARTH
REF_FRAME      = TEME
TIME_SYSTEM    = UTC
MEAN_ELEMENT_THEORY = SGP/SGP4

EPOCH          = 2026-02-04T05:46:41.020320
MEAN_MOTION    = 15.80777156
ECCENTRICITY   = .0217886
INCLINATION    = 97.4373
RA_OF_ASC_NODE = 160.6086
ARG_OF_PERICENTER = 207.8915
MEAN_ANOMALY   = 151.0537

EPHEMERIS_TYPE = 0
CLASSIFICATION_TYPE = U
NORAD_CAT_ID   = 67615
ELEMENT_SET_NO = 999
REV_AT_EPOCH   = 81
BSTAR          = .15492E-2
MEAN_MOTION_DOT = .1926282E-1
MEAN_MOTION_DDOT = .21888E-5

CCSDS_OMM_VERS = 2.0
CREATION_DATE  = 
ORIGINATOR     = 

OBJECT_NAME    = ELECTRON KICK STAGE R/B
OBJECT_ID      = 2026-019C
CENTER_NAME    = EARTH
REF_FRAME      = TEME
TIME_SYSTEM    = UTC
MEAN_ELEMENT_THEORY = SGP/SGP4

EPOCH          = 2026-02-03T14:12:26.920800
MEAN_MOTION    = 15.55585905
ECCENTRICITY   = .02020327
INCLINATION    = 97.4072
RA_OF_ASC_NODE = 159.7158
ARG_OF_PERICENTER = 245.8288
MEAN_ANOMALY   = 112.1730

EPHEMERIS_TYPE = 0
CLASSIFICATION_TYPE = U
NORAD_CAT_ID   = 67616
ELEMENT_SET_NO = 999
REV_AT_EPOCH   = 70
BSTAR          = .17341337E-2
MEAN_MOTION_DOT = .306827E-2
MEAN_MOTION_DDOT = .2663509E-4

CCSDS_OMM_VERS = 2.0
CREATION_DATE  = 
ORIGINATOR     = 

OBJECT_NAME    = ALSAT-3B
OBJECT_ID      = 2026-021A
CENTER_NAME    = EARTH
REF_FRAME      = TEME
TIME_SYSTEM    = UTC
MEAN_ELEMENT_THEORY = SGP/SGP4

EPOCH          = 2026-02-04T06:48:43.675776
MEAN_MOTION    = 15.23419627
ECCENTRICITY   = .0011386
INCLINATION    = 97.4730
RA_OF_ASC_NODE = 109.7629
ARG_OF_PERICENTER = 250.1927
MEAN_ANOMALY   = 109.8082

EPHEMERIS_TYPE = 0
CLASSIFICATION_TYPE = U
NORAD_CAT_ID   = 67646
ELEMENT_SET_NO = 999
REV_AT_EPOCH   = 63
BSTAR          = .35406E-3
MEAN_MOTION_DOT = .8374E-4
MEAN_MOTION_DDOT = 0

CCSDS_OMM_VERS = 2.0
CREATION_DATE  = 
ORIGINATOR     = 

OBJECT_NAME    = CZ-2C R/B
OBJECT_ID      = 2026-021B
CENTER_NAME    = EARTH
REF_FRAME      = TEME
TIME_SYSTEM    = UTC
MEAN_ELEMENT_THEORY = SGP/SGP4

EPOCH          = 2026-02-04T03:41:38.511744
MEAN_MOTION    = 15.23126039
ECCENTRICITY   = .0154237
INCLINATION    = 97.6572
RA_OF_ASC_NODE = 109.9462
ARG_OF_PERICENTER = 127.6741
MEAN_ANOMALY   = 233.8600

EPHEMERIS_TYPE = 0
CLASSIFICATION_TYPE = U
NORAD_CAT_ID   = 67647
ELEMENT_SET_NO = 999
REV_AT_EPOCH   = 59
BSTAR          = .50431E-3
MEAN_MOTION_DOT = .16577E-3
MEAN_MOTION_DDOT = 0

CCSDS_OMM_VERS = 2.0
CREATION_DATE  = 
ORIGINATOR     = 

OBJECT_NAME    = FALCON 9 R/B
OBJECT_ID      = 2026-022AB
CENTER_NAME    = EARTH
REF_FRAME      = TEME
TIME_SYSTEM    = UTC
MEAN_ELEMENT_THEORY = SGP/SGP4

EPOCH          = 2026-02-03T00:05:15.753120
MEAN_MOTION    = 16.44000479
ECCENTRICITY   = .00792647
INCLINATION    = 97.2856
RA_OF_ASC_NODE = 65.8839
ARG_OF_PERICENTER = 265.4221
MEAN_ANOMALY   = 93.8024

EPHEMERIS_TYPE = 0
CLASSIFICATION_TYPE = U
NORAD_CAT_ID   = 67673
ELEMENT_SET_NO = 999
REV_AT_EPOCH   = 6
BSTAR          = .12399573E-3
MEAN_MOTION_DOT = .18957846E+0
MEAN_MOTION_DDOT = .239264E-5

