STARLINK-36560          
1 67585U 26016AA  26034.58335648 -.01684790  81462-3 -44501-2 0  9990
2 67585  97.2766  93.2757 0001462  93.2643  31.6980 15.94828434  2505
CZ-2C DEB               
1 67586U 26009C   26035.15797699  .00067775  00000+0  34136-2 0  9998
2 67586  97.2270 108.8814 0112004 153.0557 207.6551 15.11527108  3016
CZ-2C DEB               
1 67587U 26009D   26035.13387417  .00047052  00000+0  22887-2 0  9996
2 67587  97.6738 109.9482 0108588 158.3827 202.2040 15.13115151  3010
NAVSTAR 85 (USA 581)    
1 67588U 26017A   26028.76206649  .00000346  00000+0  32093-3 0  9990
2 67588  55.0007  99.1396 5940837 270.1415  26.1406  4.03376750    44
NEONSAT-1A              
1 67614U 26019A   26034.59877944  .00004847  00000+0  32261-3 0  9999
2 67614  97.4100 159.4076 0011756 293.9576  66.0420 15.07531449   681
ELECTRON R/B            
1 67615U 26019B   26035.24075255  .01926282  21888-5  15492-2 0  9994
2 67615  97.4373 160.6086 0217886 207.8915 151.0537 15.80777156   819
ELECTRON KICK STAGE R/B 
1 67616U 26019C   26034.59197825  .00306827  26635-4  17341-2 0  9995
2 67616  97.4072 159.7158 0202032 245.8288 112.1730 15.55585905   709
ALSAT-3B                
1 67646U 26021A   26035.28383884  .00008374  00000+0  35406-3 0  9992
2 67646  97.4730 109.7629 0011386 250.1927 109.8082 15.23419627   637
CZ-2C R/B               
1 67647U 26021B   26035.15391796  .00016577  00000+0  50431-3 0  9999
2 67647  97.6572 109.9462 0154237 127.6741 233.8600 15.23126039   597
FALCON 9 R/B            
1 67673U 26022AB  26034.00365455  .18957846  23926-5  12400-3 0  9999
2 67673  97.2856  65.8839 0079264 265.4221  93.8024 16.44000479    64
